start=new Date('2022-05-03T00:00:00.000Z').valueOf();
sats=[{"MEAN_ANOMALY":"304.8367","LAUNCH_DATE":"2021-03-11","MEAN_ELEMENT_THEORY":"SGP4","EPHEMERIS_TYPE":"0","EPOCH":"2022-05-02T15:12:59.531904","PERIOD":"95.593","TLE_LINE2":"2 47833  53.0554  88.1502 0001765  55.2788 304.8367 15.06394042 64574","GP_ID":"202555074","SEMIMAJOR_AXIS":"6925.367","APOAPSIS":"548.454","SITE":"AFETR","MEAN_MOTION_DOT":"0.00000834","REV_AT_EPOCH":"6457","DECAY_DATE":null,"ELEMENT_SET_NO":"999","INCLINATION":"53.0554","MEAN_MOTION":"15.06394042","RA_OF_ASC_NODE":"88.1502","RCS_SIZE":"LARGE","NORAD_CAT_ID":"47833","OBJECT_TYPE":"PAYLOAD","CLASSIFICATION_TYPE":"U","BSTAR":"0.00007490200000","MEAN_MOTION_DDOT":"0.0000000000000","ECCENTRICITY":"0.00017650","OBJECT_ID":"2021-018AY","ARG_OF_PERICENTER":"55.2788","FILE":"3426306","COUNTRY_CODE":"US","CENTER_NAME":"EARTH","REF_FRAME":"TEME","PERIAPSIS":"546.009","TIME_SYSTEM":"UTC","TLE_LINE1":"1 47833U 21018AY  22122.63402236  .00000834  00000-0  74902-4 0  9993","OBJECT_NAME":"STARLINK-2423"},{"RCS_SIZE":"LARGE","OBJECT_TYPE":"PAYLOAD","NORAD_CAT_ID":"47834","RA_OF_ASC_NODE":"89.5803","MEAN_MOTION_DOT":"0.00000928","SITE":"AFETR","REV_AT_EPOCH":"6452","DECAY_DATE":null,"INCLINATION":"53.0545","ELEMENT_SET_NO":"999","MEAN_MOTION":"15.06398114","APOAPSIS":"548.370","PERIOD":"95.592","TLE_LINE2":"2 47834  53.0545  89.5803 0001662  49.1590 310.9542 15.06398114 64525","GP_ID":"202521654","SEMIMAJOR_AXIS":"6925.354","MEAN_ELEMENT_THEORY":"SGP4","EPHEMERIS_TYPE":"0","EPOCH":"2022-05-02T07:31:12.512064","MEAN_ANOMALY":"310.9542","LAUNCH_DATE":"2021-03-11","TLE_LINE1":"1 47834U 21018AZ  22122.31333926  .00000928  00000-0  81213-4 0  9995","TIME_SYSTEM":"UTC","OBJECT_NAME":"STARLINK-2424","PERIAPSIS":"546.068","COUNTRY_CODE":"US","REF_FRAME":"TEME","CENTER_NAME":"EARTH","FILE":"3425830","ARG_OF_PERICENTER":"49.1590","MEAN_MOTION_DDOT":"0.0000000000000","OBJECT_ID":"2021-018AZ","ECCENTRICITY":"0.00016620","CLASSIFICATION_TYPE":"U","BSTAR":"0.00008121300000"},{"FILE":"3425830","ARG_OF_PERICENTER":"57.1339","OBJECT_ID":"2021-018BA","ECCENTRICITY":"0.00016420","MEAN_MOTION_DDOT":"0.0000000000000","BSTAR":"0.00018025000000","CLASSIFICATION_TYPE":"U","OBJECT_NAME":"STARLINK-2425","TLE_LINE1":"1 47835U 21018BA  22122.39487303  .00002404  00000-0  18025-3 0  9994","TIME_SYSTEM":"UTC","PERIAPSIS":"546.076","CENTER_NAME":"EARTH","COUNTRY_CODE":"US","REF_FRAME":"TEME","APOAPSIS":"548.350","SEMIMAJOR_AXIS":"6925.348","TLE_LINE2":"2 47835  53.0545  94.2008 0001642  57.1339 302.9808 15.06400093 64407","GP_ID":"202521903","PERIOD":"95.592","EPHEMERIS_TYPE":"0","EPOCH":"2022-05-02T09:28:37.029792","MEAN_ELEMENT_THEORY":"SGP4","LAUNCH_DATE":"2021-03-11","MEAN_ANOMALY":"302.9808","OBJECT_TYPE":"PAYLOAD","NORAD_CAT_ID":"47835","RCS_SIZE":"LARGE","RA_OF_ASC_NODE":"94.2008","ELEMENT_SET_NO":"999","DECAY_DATE":null,"REV_AT_EPOCH":"6440","INCLINATION":"53.0545","MEAN_MOTION":"15.06400093","SITE":"AFETR","MEAN_MOTION_DOT":"0.00002404"},{"COUNTRY_CODE":"US","CENTER_NAME":"EARTH","REF_FRAME":"TEME","PERIAPSIS":"545.966","OBJECT_NAME":"STARLINK-2426","TIME_SYSTEM":"UTC","TLE_LINE1":"1 47836U 21018BB  22122.32345462  .00000239  00000-0  34971-4 0  9990","BSTAR":"0.00003497100000","CLASSIFICATION_TYPE":"U","OBJECT_ID":"2021-018BB","ECCENTRICITY":"0.00018420","MEAN_MOTION_DDOT":"0.0000000000000","ARG_OF_PERICENTER":"50.6158","FILE":"3425830","DECAY_DATE":null,"ELEMENT_SET_NO":"999","REV_AT_EPOCH":"6447","INCLINATION":"53.0554","MEAN_MOTION":"15.06390922","SITE":"AFETR","MEAN_MOTION_DOT":"0.00000239","RA_OF_ASC_NODE":"89.5378","NORAD_CAT_ID":"47836","OBJECT_TYPE":"PAYLOAD","RCS_SIZE":"LARGE","LAUNCH_DATE":"2021-03-11","MEAN_ANOMALY":"309.4994","EPHEMERIS_TYPE":"0","EPOCH":"2022-05-02T07:45:46.479168","MEAN_ELEMENT_THEORY":"SGP4","SEMIMAJOR_AXIS":"6925.376","TLE_LINE2":"2 47836  53.0554  89.5378 0001842  50.6158 309.4994 15.06390922 64478","GP_ID":"202520653","PERIOD":"95.593","APOAPSIS":"548.517"},{"MEAN_MOTION_DOT":"-0.00001747","SITE":"AFETR","DECAY_DATE":null,"INCLINATION":"53.0549","REV_AT_EPOCH":"6479","ELEMENT_SET_NO":"999","MEAN_MOTION":"15.06383357","RCS_SIZE":"LARGE","OBJECT_TYPE":"PAYLOAD","NORAD_CAT_ID":"47837","RA_OF_ASC_NODE":"68.5645","MEAN_ELEMENT_THEORY":"SGP4","EPOCH":"2022-05-02T12:57:40.237056","EPHEMERIS_TYPE":"0","MEAN_ANOMALY":"317.1154","LAUNCH_DATE":"2021-03-11","APOAPSIS":"548.586","PERIOD":"95.593","TLE_LINE2":"2 47837  53.0549  68.5645 0001908  42.9983 317.1154 15.06383357 64793","SEMIMAJOR_AXIS":"6925.400","GP_ID":"202521404","PERIAPSIS":"545.943","CENTER_NAME":"EARTH","COUNTRY_CODE":"US","REF_FRAME":"TEME","TLE_LINE1":"1 47837U 21018BC  22122.54004904 -.00001747  00000-0 -98475-4 0  9994","TIME_SYSTEM":"UTC","OBJECT_NAME":"STARLINK-2427","MEAN_MOTION_DDOT":"0.0000000000000","OBJECT_ID":"2021-018BC","ECCENTRICITY":"0.00019080","CLASSIFICATION_TYPE":"U","BSTAR":"-0.00009847500000","FILE":"3425830","ARG_OF_PERICENTER":"42.9983"},{"SITE":"AFETR","MEAN_MOTION_DOT":"0.00000882","REV_AT_EPOCH":"6451","DECAY_DATE":null,"ELEMENT_SET_NO":"999","MEAN_MOTION":"15.06393734","INCLINATION":"53.0552","RA_OF_ASC_NODE":"88.2053","RCS_SIZE":"LARGE","NORAD_CAT_ID":"47838","OBJECT_TYPE":"PAYLOAD","MEAN_ANOMALY":"318.5021","LAUNCH_DATE":"2021-03-11","MEAN_ELEMENT_THEORY":"SGP4","EPHEMERIS_TYPE":"0","EPOCH":"2022-05-02T14:51:45.421344","PERIOD":"95.593","GP_ID":"202555825","TLE_LINE2":"2 47838  53.0552  88.2053 0001875  41.6110 318.5021 15.06393734 64519","SEMIMAJOR_AXIS":"6925.368","APOAPSIS":"548.531","COUNTRY_CODE":"US","CENTER_NAME":"EARTH","REF_FRAME":"TEME","PERIAPSIS":"545.934","TIME_SYSTEM":"UTC","TLE_LINE1":"1 47838U 21018BD  22122.61927571  .00000882  00000-0  78124-4 0  9993","OBJECT_NAME":"STARLINK-2429","CLASSIFICATION_TYPE":"U","BSTAR":"0.00007812400000","MEAN_MOTION_DDOT":"0.0000000000000","OBJECT_ID":"2021-018BD","ECCENTRICITY":"0.00018750","ARG_OF_PERICENTER":"41.6110","FILE":"3426306"},{"APOAPSIS":"548.366","TLE_LINE2":"2 47839  53.0554  57.1682 0001609  59.1944 300.9203 15.06387429 64981","GP_ID":"202556075","SEMIMAJOR_AXIS":"6925.387","PERIOD":"95.593","EPOCH":"2022-05-02T20:19:31.518048","EPHEMERIS_TYPE":"0","MEAN_ELEMENT_THEORY":"SGP4","LAUNCH_DATE":"2021-03-11","MEAN_ANOMALY":"300.9203","NORAD_CAT_ID":"47839","OBJECT_TYPE":"PAYLOAD","RCS_SIZE":"LARGE","RA_OF_ASC_NODE":"57.1682","DECAY_DATE":null,"MEAN_MOTION":"15.06387429","REV_AT_EPOCH":"6498","ELEMENT_SET_NO":"999","INCLINATION":"53.0554","SITE":"AFETR","MEAN_MOTION_DOT":"-0.00000326","FILE":"3426306","ARG_OF_PERICENTER":"59.1944","ECCENTRICITY":"0.00016090","OBJECT_ID":"2021-018BE","MEAN_MOTION_DDOT":"0.0000000000000","BSTAR":"-0.00000300080000","CLASSIFICATION_TYPE":"U","OBJECT_NAME":"STARLINK-2431","TIME_SYSTEM":"UTC","TLE_LINE1":"1 47839U 21018BE  22122.84689257 -.00000326  00000-0 -30008-5 0  9990","PERIAPSIS":"546.138","REF_FRAME":"TEME","COUNTRY_CODE":"US","CENTER_NAME":"EARTH"},{"RA_OF_ASC_NODE":"67.1373","RCS_SIZE":"LARGE","OBJECT_TYPE":"PAYLOAD","NORAD_CAT_ID":"47840","MEAN_MOTION_DOT":"-0.00000070","SITE":"AFETR","DECAY_DATE":null,"MEAN_MOTION":"15.06387192","REV_AT_EPOCH":"6483","ELEMENT_SET_NO":"999","INCLINATION":"53.0565","PERIOD":"95.593","GP_ID":"202556321","TLE_LINE2":"2 47840  53.0565  67.1373 0001581  53.4250 306.6885 15.06387192 64839","SEMIMAJOR_AXIS":"6925.388","APOAPSIS":"548.348","MEAN_ANOMALY":"306.6885","LAUNCH_DATE":"2021-03-11","MEAN_ELEMENT_THEORY":"SGP4","EPHEMERIS_TYPE":"0","EPOCH":"2022-05-02T20:34:06.326688","TLE_LINE1":"1 47840U 21018BF  22122.85701767 -.00000070  00000-0  14176-4 0  9996","TIME_SYSTEM":"UTC","OBJECT_NAME":"STARLINK-2432","CENTER_NAME":"EARTH","COUNTRY_CODE":"US","REF_FRAME":"TEME","PERIAPSIS":"546.158","ARG_OF_PERICENTER":"53.4250","FILE":"3426306","CLASSIFICATION_TYPE":"U","BSTAR":"0.00001417600000","MEAN_MOTION_DDOT":"0.0000000000000","ECCENTRICITY":"0.00015810","OBJECT_ID":"2021-018BF"},{"EPHEMERIS_TYPE":"0","EPOCH":"2022-05-02T20:28:48.180288","MEAN_ELEMENT_THEORY":"SGP4","LAUNCH_DATE":"2021-03-11","MEAN_ANOMALY":"292.8575","APOAPSIS":"548.141","GP_ID":"202555075","TLE_LINE2":"2 47841  53.0567  67.1519 0001298  67.2551 292.8575 15.06390774 64838","SEMIMAJOR_AXIS":"6925.377","PERIOD":"95.593","ELEMENT_SET_NO":"999","DECAY_DATE":null,"REV_AT_EPOCH":"6483","INCLINATION":"53.0567","MEAN_MOTION":"15.06390774","MEAN_MOTION_DOT":"0.00001054","SITE":"AFETR","NORAD_CAT_ID":"47841","OBJECT_TYPE":"PAYLOAD","RCS_SIZE":"LARGE","RA_OF_ASC_NODE":"67.1519","ECCENTRICITY":"0.00012980","OBJECT_ID":"2021-018BG","MEAN_MOTION_DDOT":"0.0000000000000","BSTAR":"0.00008967300000","CLASSIFICATION_TYPE":"U","FILE":"3426306","ARG_OF_PERICENTER":"67.2551","PERIAPSIS":"546.343","COUNTRY_CODE":"US","REF_FRAME":"TEME","CENTER_NAME":"EARTH","OBJECT_NAME":"STARLINK-2433","TLE_LINE1":"1 47841U 21018BG  22122.85333542  .00001054  00000-0  89673-4 0  9995","TIME_SYSTEM":"UTC"},{"OBJECT_NAME":"STARLINK-2434","TLE_LINE1":"1 47842U 21018BH  22122.64047777 -.00000747  00000-0 -31213-4 0  9992","TIME_SYSTEM":"UTC","PERIAPSIS":"545.797","COUNTRY_CODE":"US","REF_FRAME":"TEME","CENTER_NAME":"EARTH","FILE":"3426306","ARG_OF_PERICENTER":"39.2494","ECCENTRICITY":"0.00020840","OBJECT_ID":"2021-018BH","MEAN_MOTION_DDOT":"0.0000000000000","BSTAR":"-0.00003121300000","CLASSIFICATION_TYPE":"U","NORAD_CAT_ID":"47842","OBJECT_TYPE":"PAYLOAD","RCS_SIZE":"LARGE","RA_OF_ASC_NODE":"98.1094","REV_AT_EPOCH":"6443","DECAY_DATE":null,"ELEMENT_SET_NO":"999","INCLINATION":"53.0548","MEAN_MOTION":"15.06391143","MEAN_MOTION_DOT":"-0.00000747","SITE":"AFETR","APOAPSIS":"548.684","SEMIMAJOR_AXIS":"6925.376","TLE_LINE2":"2 47842  53.0548  98.1094 0002084  39.2494 320.8645 15.06391143 64436","GP_ID":"202555325","PERIOD":"95.593","EPHEMERIS_TYPE":"0","EPOCH":"2022-05-02T15:22:17.279328","MEAN_ELEMENT_THEORY":"SGP4","LAUNCH_DATE":"2021-03-11","MEAN_ANOMALY":"320.8645"}];
